{"fetched_at":"2026-07-07T18:29:09.813Z","source":"https://celestrak.org/NORAD/elements/gp.php?GROUP=spire&FORMAT=JSON","constellation":"spire","records":[{"OBJECT_NAME":"LEMUR-2-VALHALLA","OBJECT_ID":"2024-022B","EPOCH":"2026-07-07T00:33:46.290816","CLASSIFICATION_TYPE":"U","MEAN_MOTION":15.40309483,"ECCENTRICITY":0.0010016,"INCLINATION":97.4094,"RA_OF_ASC_NODE":38.2595,"ARG_OF_PERICENTER":51.0671,"MEAN_ANOMALY":309.1466,"EPHEMERIS_TYPE":0,"NORAD_CAT_ID":58900,"ELEMENT_SET_NO":999,"REV_AT_EPOCH":13532,"BSTAR":0.00029263,"MEAN_MOTION_DOT":0.00011733,"MEAN_MOTION_DDOT":0},{"OBJECT_NAME":"LEMUR-2-CAEL","OBJECT_ID":"2024-022E","EPOCH":"2026-07-07T01:56:52.108224","CLASSIFICATION_TYPE":"U","MEAN_MOTION":15.41661151,"ECCENTRICITY":0.0007979,"INCLINATION":97.4077,"RA_OF_ASC_NODE":39.2893,"ARG_OF_PERICENTER":37.397,"MEAN_ANOMALY":322.7831,"EPHEMERIS_TYPE":0,"NORAD_CAT_ID":58903,"ELEMENT_SET_NO":999,"REV_AT_EPOCH":13540,"BSTAR":0.0003104,"MEAN_MOTION_DOT":0.00013015,"MEAN_MOTION_DDOT":0},{"OBJECT_NAME":"LEMUR-2-JOHNNYTRUONG","OBJECT_ID":"2024-043BA","EPOCH":"2026-07-07T09:41:37.748832","CLASSIFICATION_TYPE":"U","MEAN_MOTION":15.62091018,"ECCENTRICITY":0.0004359,"INCLINATION":97.5392,"RA_OF_ASC_NODE":341.3839,"ARG_OF_PERICENTER":116.1044,"MEAN_ANOMALY":244.0662,"EPHEMERIS_TYPE":0,"NORAD_CAT_ID":59146,"ELEMENT_SET_NO":999,"REV_AT_EPOCH":13119,"BSTAR":0.00038549,"MEAN_MOTION_DOT":0.00033713,"MEAN_MOTION_DDOT":0},{"OBJECT_NAME":"LEMUR-2-TOMATOKECHUP","OBJECT_ID":"2024-149D","EPOCH":"2026-07-06T17:07:24.161376","CLASSIFICATION_TYPE":"U","MEAN_MOTION":15.36460405,"ECCENTRICITY":0.0002908,"INCLINATION":97.3789,"RA_OF_ASC_NODE":269.8148,"ARG_OF_PERICENTER":137.9028,"MEAN_ANOMALY":222.244,"EPHEMERIS_TYPE":0,"NORAD_CAT_ID":60471,"ELEMENT_SET_NO":999,"REV_AT_EPOCH":10516,"BSTAR":0.000255,"MEAN_MOTION_DOT":0.00008991,"MEAN_MOTION_DDOT":0},{"OBJECT_NAME":"LEMUR-2-STELLA","OBJECT_ID":"2024-149BT","EPOCH":"2026-07-07T11:09:12.597696","CLASSIFICATION_TYPE":"U","MEAN_MOTION":15.12261782,"ECCENTRICITY":0.0001081,"INCLINATION":97.6725,"RA_OF_ASC_NODE":271.0135,"ARG_OF_PERICENTER":110.4219,"MEAN_ANOMALY":249.7127,"EPHEMERIS_TYPE":0,"NORAD_CAT_ID":60533,"ELEMENT_SET_NO":999,"REV_AT_EPOCH":10356,"BSTAR":0.00041983,"MEAN_MOTION_DOT":0.00007196,"MEAN_MOTION_DDOT":0},{"OBJECT_NAME":"LEMUR-2-MARHISYAM","OBJECT_ID":"2024-149BW","EPOCH":"2026-07-07T04:30:30.642624","CLASSIFICATION_TYPE":"U","MEAN_MOTION":15.11670752,"ECCENTRICITY":0.0002783,"INCLINATION":97.6871,"RA_OF_ASC_NODE":271.2045,"ARG_OF_PERICENTER":81.116,"MEAN_ANOMALY":279.0384,"EPHEMERIS_TYPE":0,"NORAD_CAT_ID":60536,"ELEMENT_SET_NO":999,"REV_AT_EPOCH":10350,"BSTAR":0.00047483,"MEAN_MOTION_DOT":0.00008016,"MEAN_MOTION_DDOT":0},{"OBJECT_NAME":"LEMUR-2-AHMED-ASRAR","OBJECT_ID":"2024-149DN","EPOCH":"2026-07-07T04:51:28.592064","CLASSIFICATION_TYPE":"U","MEAN_MOTION":15.13187548,"ECCENTRICITY":0.0000574,"INCLINATION":97.6994,"RA_OF_ASC_NODE":273.3904,"ARG_OF_PERICENTER":259.3398,"MEAN_ANOMALY":100.7767,"EPHEMERIS_TYPE":0,"NORAD_CAT_ID":60576,"ELEMENT_SET_NO":999,"REV_AT_EPOCH":10359,"BSTAR":0.00046359,"MEAN_MOTION_DOT":0.00008163,"MEAN_MOTION_DDOT":0},{"OBJECT_NAME":"LEMUR-2-LLOYD","OBJECT_ID":"2024-149DP","EPOCH":"2026-07-07T11:02:38.251680","CLASSIFICATION_TYPE":"U","MEAN_MOTION":15.09650711,"ECCENTRICITY":0.000491,"INCLINATION":97.6734,"RA_OF_ASC_NODE":269.6046,"ARG_OF_PERICENTER":90.2019,"MEAN_ANOMALY":269.9772,"EPHEMERIS_TYPE":0,"NORAD_CAT_ID":60577,"ELEMENT_SET_NO":999,"REV_AT_EPOCH":10345,"BSTAR":0.00040278,"MEAN_MOTION_DOT":0.0000642,"MEAN_MOTION_DDOT":0},{"OBJECT_NAME":"LEMUR-2-SQUIRRELCOMM","OBJECT_ID":"2024-149DQ","EPOCH":"2026-07-07T04:07:02.550720","CLASSIFICATION_TYPE":"U","MEAN_MOTION":15.07390844,"ECCENTRICITY":0.0004831,"INCLINATION":97.6704,"RA_OF_ASC_NODE":269.0219,"ARG_OF_PERICENTER":356.7461,"MEAN_ANOMALY":3.3734,"EPHEMERIS_TYPE":0,"NORAD_CAT_ID":60578,"ELEMENT_SET_NO":999,"REV_AT_EPOCH":10341,"BSTAR":0.00032133,"MEAN_MOTION_DOT":0.000048,"MEAN_MOTION_DDOT":0},{"OBJECT_NAME":"LEMUR-2-SIERRINI","OBJECT_ID":"2024-149DR","EPOCH":"2026-07-07T11:31:23.465280","CLASSIFICATION_TYPE":"U","MEAN_MOTION":15.11403308,"ECCENTRICITY":0.0006611,"INCLINATION":97.6835,"RA_OF_ASC_NODE":271.1672,"ARG_OF_PERICENTER":110.2503,"MEAN_ANOMALY":249.9438,"EPHEMERIS_TYPE":0,"NORAD_CAT_ID":60579,"ELEMENT_SET_NO":999,"REV_AT_EPOCH":10352,"BSTAR":0.00041789,"MEAN_MOTION_DOT":0.00006996,"MEAN_MOTION_DDOT":0},{"OBJECT_NAME":"LEMUR-2-WILSON","OBJECT_ID":"2025-009CP","EPOCH":"2026-07-07T04:07:02.604288","CLASSIFICATION_TYPE":"U","MEAN_MOTION":14.9525805,"ECCENTRICITY":0.0002599,"INCLINATION":97.7021,"RA_OF_ASC_NODE":266.2859,"ARG_OF_PERICENTER":5.7645,"MEAN_ANOMALY":354.3605,"EPHEMERIS_TYPE":0,"NORAD_CAT_ID":62694,"ELEMENT_SET_NO":999,"REV_AT_EPOCH":8034,"BSTAR":0.00023207,"MEAN_MOTION_DOT":0.00002497,"MEAN_MOTION_DDOT":0},{"OBJECT_NAME":"LEMUR-2-STAR-FOX","OBJECT_ID":"2025-009CR","EPOCH":"2026-07-06T14:29:58.660224","CLASSIFICATION_TYPE":"U","MEAN_MOTION":15.02774699,"ECCENTRICITY":0.0003481,"INCLINATION":97.6928,"RA_OF_ASC_NODE":269.0749,"ARG_OF_PERICENTER":70.943,"MEAN_ANOMALY":289.2172,"EPHEMERIS_TYPE":0,"NORAD_CAT_ID":62696,"ELEMENT_SET_NO":999,"REV_AT_EPOCH":8047,"BSTAR":0.00042526,"MEAN_MOTION_DOT":0.00005629,"MEAN_MOTION_DDOT":0},{"OBJECT_NAME":"LEMUR-2-ARIANNA","OBJECT_ID":"2025-009CU","EPOCH":"2026-07-06T04:52:28.437024","CLASSIFICATION_TYPE":"U","MEAN_MOTION":15.02770802,"ECCENTRICITY":0.00038727,"INCLINATION":97.6866,"RA_OF_ASC_NODE":268.4362,"ARG_OF_PERICENTER":76.76,"MEAN_ANOMALY":283.4057,"EPHEMERIS_TYPE":0,"NORAD_CAT_ID":62699,"ELEMENT_SET_NO":999,"REV_AT_EPOCH":8041,"BSTAR":0.00053415395,"MEAN_MOTION_DOT":0.00007087,"MEAN_MOTION_DDOT":0},{"OBJECT_NAME":"LEMUR-2-ALISIA","OBJECT_ID":"2025-009DB","EPOCH":"2026-07-07T01:01:40.001376","CLASSIFICATION_TYPE":"U","MEAN_MOTION":15.03089428,"ECCENTRICITY":0.0003408,"INCLINATION":97.6951,"RA_OF_ASC_NODE":270.0782,"ARG_OF_PERICENTER":155.6076,"MEAN_ANOMALY":204.5311,"EPHEMERIS_TYPE":0,"NORAD_CAT_ID":62706,"ELEMENT_SET_NO":999,"REV_AT_EPOCH":10314,"BSTAR":0.00048274,"MEAN_MOTION_DOT":0.00006452,"MEAN_MOTION_DDOT":0},{"OBJECT_NAME":"LEMUR-2-ROUNDTRIPPER","OBJECT_ID":"2025-009DG","EPOCH":"2026-07-07T04:28:56.781120","CLASSIFICATION_TYPE":"U","MEAN_MOTION":15.04138808,"ECCENTRICITY":0.0004458,"INCLINATION":97.7223,"RA_OF_ASC_NODE":270.8397,"ARG_OF_PERICENTER":82.769,"MEAN_ANOMALY":277.4043,"EPHEMERIS_TYPE":0,"NORAD_CAT_ID":62711,"ELEMENT_SET_NO":999,"REV_AT_EPOCH":8063,"BSTAR":0.00048362,"MEAN_MOTION_DOT":0.00006648,"MEAN_MOTION_DDOT":0},{"OBJECT_NAME":"LEMUR-2-MYNAMEISJEFF","OBJECT_ID":"2025-009DH","EPOCH":"2026-07-07T04:26:42.192384","CLASSIFICATION_TYPE":"U","MEAN_MOTION":15.04131043,"ECCENTRICITY":0.0003603,"INCLINATION":97.7276,"RA_OF_ASC_NODE":271.2311,"ARG_OF_PERICENTER":116.4406,"MEAN_ANOMALY":243.7189,"EPHEMERIS_TYPE":0,"NORAD_CAT_ID":62712,"ELEMENT_SET_NO":999,"REV_AT_EPOCH":8063,"BSTAR":0.00048688,"MEAN_MOTION_DOT":0.00006692,"MEAN_MOTION_DDOT":0}]}
